SL-16 R/B               
1 25407U 98045B   26065.39468869 -.00000071  00000+0 -11609-4 0  9996
2 25407  71.0115 188.5026 0006542  13.0642 347.0650 14.16189122426639
ISS (ZARYA)             
1 25544U 98067A   26065.54469341  .00009332  00000+0  18044-3 0  9991
2 25544  51.6317  87.9051 0008117 163.3368 196.7888 15.48477653555846
CZ-4B R/B               
1 25732U 99025C   26065.06138137  .00000057  00000+0  48519-4 0  9994
2 25732  98.6633 109.4287 0036951 357.0932  32.9430 14.18264511387653
OKEAN-O                 
1 25860U 99039A   26065.40748628  .00000964  00000+0  13332-3 0  9992
2 25860  97.9448 125.3323 0001325  69.1471 290.9883 14.80329538433903
SL-16 R/B               
1 25861U 99039B   26065.45797177  .00000816  00000+0  11021-3 0  9990
2 25861  97.9973 124.5595 0013449 267.6987  92.2686 14.81726502436388
HELIOS 1B               
1 25977U 99064A   26065.48541299  .00002718  00000+0  30481-3 0  9995
2 25977  98.1697 327.6348 0002495  79.2297 280.9200 14.87683680684786
SL-16 R/B               
1 26070U 00006B   26065.40925463  .00000077  00000+0  63491-4 0  9993
2 26070  71.0012 104.7358 0017007 194.8070 165.2557 14.15825561348093
IDEFIX & ARIANE 42P R/B 
1 27422U 02021B   26065.55922276  .00000414  00000+0  17399-3 0  9999
2 27422  98.5866   4.2029 0011391 191.5536 168.5388 14.31023607243570
